OBJECT_NAME,OBJECT_ID,EPOCH,MEAN_MOTION,ECCENTRICITY,INCLINATION,RA_OF_ASC_NODE,ARG_OF_PERICENTER,MEAN_ANOMALY,EPHEMERIS_TYPE,CLASSIFICATION_TYPE,NORAD_CAT_ID,ELEMENT_SET_NO,REV_AT_EPOCH,BSTAR,MEAN_MOTION_DOT,MEAN_MOTION_DDOT
KUIPER-00616,2026-151N,2026-07-13T13:18:42.485760,15.38365807,.00032311,51.8774,188.2423,118.4498,241.6815,0,U,69775,999,176,.29330224E-3,.10892E-3,0
KUIPER-00617,2026-151P,2026-07-13T13:23:49.897824,15.37756189,.00041086,51.8787,188.2606,129.0602,231.0751,0,U,69776,999,176,.31929332E-3,.11655E-3,0
KUIPER-00619,2026-151Q,2026-07-13T11:42:27.261792,15.38509808,.00020496,51.8786,188.5383,55.3478,304.7703,0,U,69777,999,175,.34185553E-3,.12825E-3,0
KUIPER-00621,2026-151R,2026-07-13T11:44:52.150272,15.38304218,.00021929,51.8779,188.5537,95.9796,264.1441,0,U,69778,999,175,.27949854E-3,.10338E-3,0
KUIPER-00622,2026-151S,2026-07-13T13:32:09.739104,15.36970364,.00069656,51.8726,188.3023,144.2615,215.8839,0,U,69779,999,176,.39226943E-3,.1405E-3,0
KUIPER-00623,2026-151T,2026-07-13T15:00:39.017376,15.37406821,.00050306,51.8766,187.9653,127.9580,232.1862,0,U,69780,999,177,.32977599E-3,.11913E-3,0
KUIPER-00626,2026-151U,2026-07-13T15:17:02.245920,15.35552978,.00099575,51.8715,188.0366,161.6369,198.4978,0,U,69781,999,177,-.17174349E-3,-.642E-4,0
KUIPER-00627,2026-151V,2026-07-13T15:19:29.303040,15.35455187,.00113753,51.8695,188.0457,163.7814,196.3538,0,U,69782,999,177,.31683653E-4,.721E-5,0
KUIPER-00629,2026-151W,2026-07-13T13:32:48.902496,15.36945234,.00072143,51.8735,188.3068,140.5053,219.6461,0,U,69783,999,176,.31561433E-3,.11215E-3,0
KUIPER-00631,2026-151X,2026-07-13T13:35:14.292960,15.36717343,.00078314,51.8701,188.3183,148.8485,211.2967,0,U,69784,999,176,.30824768E-3,.10863E-3,0
KUIPER-00634,2026-151Y,2026-07-13T10:17:19.322304,15.37708366,.00037538,51.8762,188.8963,128.5208,231.6116,0,U,69785,999,174,.21681388E-3,.7771E-4,0
KUIPER-00639,2026-151Z,2026-07-13T13:40:43.127904,15.35898155,.00097101,51.8684,188.3396,155.0519,205.0938,0,U,69786,999,176,.35833581E-3,.12363E-3,0
KUIPER-00641,2026-151AA,2026-07-13T15:20:08.826720,15.35094393,.00105162,51.8671,188.0509,153.0740,207.0793,0,U,69787,999,177,.29123367E-3,.9713E-4,0
KUIPER-00644,2026-151AB,2026-07-13T13:37:10.789536,15.36536999,.00085012,51.8731,188.3261,152.0590,208.0855,0,U,69788,999,176,.31804727E-3,.11156E-3,0
KUIPER-00646,2026-151AC,2026-07-13T10:32:50.620992,15.35967857,.00100381,51.8702,188.9638,161.9649,198.1695,0,U,69789,999,174,.77620227E-3,.27353E-3,0
KUIPER-00647,2026-151AD,2026-07-13T13:44:39.513984,15.35630920,.00106035,51.8671,188.3556,160.0161,200.1242,0,U,69790,999,176,.29429595E-3,.9994E-4,0
KUIPER-00662,2026-151AE,2026-07-13T13:36:13.377600,15.36567739,.00083998,51.8722,188.3207,148.2451,211.9043,0,U,69791,999,176,-.15628098E-3,-.606E-4,0
LINK,2026-152A,2026-07-13T14:14:11.182272,15.66696755,.00243589,20.5930,339.7281,333.0472,26.8710,0,U,69792,999,160,.10504507E-2,.119882E-2,0
2026-152B,2026-152B,2026-07-13T15:55:22.240704,15.64680743,.00224154,20.5989,339.3171,332.2481,27.6770,0,U,69793,999,161,.33157577E-3,.35092E-3,0
ISS OBJECT YJ,1998-067YJ,2026-07-13T10:31:16.306752,15.49957233,.00078116,51.6301,170.1134,305.5118,54.5142,0,U,69794,999,172,.3226418E-3,.17988E-3,0
ISS OBJECT YK,1998-067YK,2026-07-13T08:54:07.017120,15.50575827,.00068072,51.6301,170.4128,314.4532,45.5899,0,U,69795,999,171,.58846051E-3,.33989E-3,0
ISS OBJECT YL,1998-067YL,2026-07-13T08:55:06.840480,15.50369871,.00088613,51.6299,170.4178,306.7235,53.2940,0,U,69796,999,170,.45406084E-3,.25917E-3,0
ISS OBJECT YM,1998-067YM,2026-07-13T08:54:49.285728,15.50409169,.00096183,51.6301,170.4160,297.8324,62.1689,0,U,69797,999,169,.46456821E-3,.26574E-3,0
ISS OBJECT YN,1998-067YN,2026-07-13T08:55:28.567488,15.50236052,.00092309,51.6304,170.4185,308.8038,51.2126,0,U,69798,999,171,.3234728E-3,.18226E-3,0
ISS OBJECT YP,1998-067YP,2026-07-13T08:54:42.560352,15.50408240,.00097817,51.6300,170.4156,297.9312,62.0686,0,U,69799,999,170,.45104091E-3,.25785E-3,0
STARLINK-37520,2026-154A,2026-07-13T14:00:01.000224,15.90011711,.00011091,53.1597,301.1145,60.0135,82.5252,0,U,69819,999,240,-.63529054E-2,-.1700429E-1,0
STARLINK-37553,2026-154B,2026-07-13T14:00:01.000224,15.90120979,.00011185,53.1596,301.1073,58.6644,87.2390,0,U,69820,999,241,-.63073258E-2,-.1698133E-1,0
STARLINK-37561,2026-154C,2026-07-13T14:00:01.000224,15.90233440,.00012038,53.1597,301.1003,59.8222,89.4557,0,U,69821,999,241,-.62797978E-2,-.170033E-1,0
STARLINK-37521,2026-154D,2026-07-13T14:00:01.000224,15.90372289,.00011812,53.1598,301.0942,61.2581,90.9518,0,U,69822,999,241,-.62295017E-2,-.1699039E-1,0
STARLINK-37628,2026-154E,2026-07-13T14:00:01.000224,15.90485996,.00011687,53.1598,301.0873,61.7299,93.7581,0,U,69823,999,241,-.61932861E-2,-.1699113E-1,0
